{
  "type": "FeatureCollection",
  "properties": {
    "description": "River geometries for Sonitpur Flash Flood Watch map overlay",
    "region_bbox": "26.55,92.60,27.20,93.45",
    "source": "OpenStreetMap via Overpass API",
    "source_url": "https://www.openstreetmap.org/",
    "license": "Open Data Commons Open Database License (ODbL) 1.0",
    "data_category": "STATIC REFERENCE",
    "generated_by": "fetch_river_geometry.py"
  },
  "features": [
    {
      "type": "Feature",
      "properties": {
        "name": "Jia Bharali",
        "role": "secondary",
        "source": "OpenStreetMap",
        "source_license": "ODbL 1.0 \u2014 \u00a9 OpenStreetMap contributors",
        "data_category": "STATIC REFERENCE",
        "note": "Simplified river geometry for Jia Bharali within Sonitpur, Assam region. Extracted from OpenStreetMap via Overpass API. Not a live or surveyed geometry \u2014 for cartographic reference only."
      },
      "geometry": {
        "type": "MultiLineString",
        "coordinates": [
          [
            [
              92.8534848,
              26.8914059
            ],
            [
              92.8536565,
              26.8788511
            ],
            [
              92.8632695,
              26.873492
            ],
            [
              92.8661878,
              26.8293839
            ],
            [
              92.8823239,
              26.8050252
            ],
            [
              92.8873021,
              26.7814275
            ],
            [
              92.8768308,
              26.7779028
            ],
            [
              92.880264,
              26.766734
            ],
            [
              92.8586027,
              26.7457332
            ]
          ],
          [
            [
              92.6066863,
              27.1345308
            ],
            [
              92.6058851,
              27.123676
            ],
            [
              92.5991255,
              27.1153848
            ],
            [
              92.6007771,
              27.1060282
            ],
            [
              92.5936963,
              27.1019521
            ],
            [
              92.599941,
              27.0939266
            ],
            [
              92.5899111,
              27.0851419
            ],
            [
              92.5960065,
              27.0528977
            ],
            [
              92.6062802,
              27.0384224
            ],
            [
              92.6255393,
              27.0269801
            ],
            [
              92.6331568,
              27.0281843
            ],
            [
              92.6387357,
              27.017671
            ],
            [
              92.6535156,
              27.0161442
            ],
            [
              92.6857717,
              26.9957711
            ],
            [
              92.695213,
              26.9942415
            ],
            [
              92.7142675,
              27.0020421
            ],
            [
              92.7384717,
              26.9950063
            ],
            [
              92.7485997,
              26.9999008
            ],
            [
              92.7571828,
              26.9937826
            ],
            [
              92.7781255,
              26.9942415
            ],
            [
              92.7858503,
              26.9872051
            ],
            [
              92.7887685,
              26.9764968
            ],
            [
              92.8112561,
              26.9685414
            ],
            [
              92.8304822,
              26.9379384
            ],
            [
              92.8443868,
              26.9322759
            ],
            [
              92.838207,
              26.915593
            ],
            [
              92.8425042,
              26.9028992
            ]
          ],
          [
            [
              92.7906345,
              27.178996
            ],
            [
              92.7805618,
              27.1799385
            ],
            [
              92.7669991,
              27.1926728
            ],
            [
              92.7512537,
              27.194397
            ],
            [
              92.718559,
              27.1729085
            ],
            [
              92.6952062,
              27.1706716
            ],
            [
              92.6897737,
              27.1644279
            ],
            [
              92.6552804,
              27.1554385
            ],
            [
              92.6517827,
              27.1498461
            ],
            [
              92.617692,
              27.1458114
            ],
            [
              92.6066863,
              27.1345308
            ]
          ],
          [
            [
              92.9007696,
              27.2171014
            ],
            [
              92.9008634,
              27.2106228
            ],
            [
              92.8882455,
              27.2002719
            ],
            [
              92.8333372,
              27.1874563
            ],
            [
              92.8138562,
              27.1752123
            ],
            [
              92.7906345,
              27.178996
            ]
          ],
          [
            [
              92.8425042,
              26.9028992
            ],
            [
              92.8534848,
              26.8914059
            ]
          ]
        ]
      }
    },
    {
      "type": "Feature",
      "properties": {
        "name": "Brahmaputra",
        "role": "primary",
        "source": "OpenStreetMap",
        "source_license": "ODbL 1.0 \u2014 \u00a9 OpenStreetMap contributors",
        "data_category": "STATIC REFERENCE",
        "note": "Simplified river geometry for Brahmaputra within Sonitpur, Assam region. Extracted from OpenStreetMap via Overpass API. Not a live or surveyed geometry \u2014 for cartographic reference only."
      },
      "geometry": {
        "type": "LineString",
        "coordinates": [
          [
            93.8203311,
            26.8263799
          ],
          [
            93.8096595,
            26.820873
          ],
          [
            93.7833309,
            26.8208154
          ],
          [
            93.7478936,
            26.7883144
          ],
          [
            93.7171876,
            26.7700968
          ],
          [
            93.704474,
            26.7687653
          ],
          [
            93.6971783,
            26.7568579
          ],
          [
            93.6581254,
            26.7472008
          ],
          [
            93.6366033,
            26.7363356
          ],
          [
            93.6211678,
            26.7368181
          ],
          [
            93.6145905,
            26.7310266
          ],
          [
            93.5824548,
            26.7335707
          ],
          [
            93.5618751,
            26.7287234
          ],
          [
            93.5269304,
            26.7125575
          ],
          [
            93.4942376,
            26.7337414
          ],
          [
            93.4766236,
            26.760129
          ],
          [
            93.4603072,
            26.7654222
          ],
          [
            93.4232711,
            26.7602109
          ],
          [
            93.4003543,
            26.7646175
          ],
          [
            93.3762359,
            26.7502858
          ],
          [
            93.3233642,
            26.7496727
          ],
          [
            93.3015847,
            26.7352625
          ],
          [
            93.2948684,
            26.7004559
          ],
          [
            93.2810926,
            26.6790222
          ],
          [
            93.2430267,
            26.6809395
          ],
          [
            93.1932391,
            26.6423561
          ],
          [
            93.1676794,
            26.6558061
          ],
          [
            93.1348371,
            26.6573544
          ],
          [
            93.1154823,
            26.6697803
          ],
          [
            93.1002044,
            26.673155
          ],
          [
            93.0702495,
            26.6407077
          ],
          [
            93.0155753,
            26.6468451
          ],
          [
            92.993946,
            26.6281635
          ],
          [
            92.9789257,
            26.6294679
          ],
          [
            92.9191124,
            26.6169848
          ],
          [
            92.8849625,
            26.6187449
          ],
          [
            92.8435599,
            26.6029847
          ],
          [
            92.7692842,
            26.6138434
          ],
          [
            92.7448869,
            26.5957418
          ],
          [
            92.7261758,
            26.5959528
          ],
          [
            92.7124643,
            26.5801799
          ],
          [
            92.683196,
            26.5877596
          ],
          [
            92.6612019,
            26.5807748
          ],
          [
            92.6417613,
            26.5804486
          ],
          [
            92.6342726,
            26.5743461
          ],
          [
            92.6168328,
            26.5757134
          ],
          [
            92.6012331,
            26.5861381
          ],
          [
            92.5669587,
            26.5975167
          ]
        ]
      }
    }
  ]
}